{
  "norad_id": 66779,
  "name": "FOSSASAT-2E22",
  "history": [
    {
      "epoch": "2026-03-28T17:12:25.896096Z",
      "apogee_km": 516.8791771849446,
      "perigee_km": 507.2535630768716,
      "latitude_deg": -5.199520939822753e-05,
      "longitude_deg": 78.22309616088629,
      "height_km": 513.3097559223112,
      "semi_major_axis_km": 6890.203370130908,
      "eccentricity": 0.0006985,
      "inclination_deg": 97.4225,
      "raan_deg": 162.4644,
      "arg_perigee_deg": 67.641,
      "mean_anomaly_deg": 292.5563,
      "mean_motion_rev_day": 15.17940334
    },
    {
      "epoch": "2026-03-29T04:16:54.630912Z",
      "apogee_km": 516.8769177571385,
      "perigee_km": 507.16138417490674,
      "latitude_deg": -7.417902622979493e-05,
      "longitude_deg": -87.89884903851116,
      "height_km": 513.3090952560173,
      "semi_major_axis_km": 6890.156150966022,
      "eccentricity": 0.00070503,
      "inclination_deg": 97.4234,
      "raan_deg": 162.917,
      "arg_perigee_deg": 68.4534,
      "mean_anomaly_deg": 291.745,
      "mean_motion_rev_day": 15.17955938
    },
    {
      "epoch": "2026-03-30T18:15:07.421184Z",
      "apogee_km": 516.436653098026,
      "perigee_km": 507.5328243799231,
      "latitude_deg": -6.913786637797823e-06,
      "longitude_deg": 62.540169236409575,
      "height_km": 513.295369453011,
      "semi_major_axis_km": 6890.121738738974,
      "eccentricity": 0.00064613,
      "inclination_deg": 97.4229,
      "raan_deg": 164.4687,
      "arg_perigee_deg": 66.6451,
      "mean_anomaly_deg": 293.5462,
      "mean_motion_rev_day": 15.1796731
    },
    {
      "epoch": "2026-03-31T03:44:40.547904Z",
      "apogee_km": 516.698003688879,
      "perigee_km": 507.30715684934785,
      "latitude_deg": 1.6828650290399405e-05,
      "longitude_deg": -79.84980591177026,
      "height_km": 512.7980799610563,
      "semi_major_axis_km": 6890.139580269113,
      "eccentricity": 0.00068147,
      "inclination_deg": 97.4217,
      "raan_deg": 164.8566,
      "arg_perigee_deg": 60.9519,
      "mean_anomaly_deg": 299.2397,
      "mean_motion_rev_day": 15.17961414
    },
    {
      "epoch": "2026-04-01T03:28:32.817792Z",
      "apogee_km": 516.6134047975611,
      "perigee_km": 507.30323239925747,
      "latitude_deg": 2.0610890696458542e-05,
      "longitude_deg": -75.82460141964921,
      "height_km": 512.6670668652799,
      "semi_major_axis_km": 6890.095318598409,
      "eccentricity": 0.00067562,
      "inclination_deg": 97.422,
      "raan_deg": 165.8242,
      "arg_perigee_deg": 59.4391,
      "mean_anomaly_deg": 300.7509,
      "mean_motion_rev_day": 15.17976041
    },
    {
      "epoch": "2026-04-01T22:27:38.315232Z",
      "apogee_km": 516.4366900873683,
      "perigee_km": 507.4768121733987,
      "latitude_deg": 3.5981115231869795e-05,
      "longitude_deg": -0.5986889481020956,
      "height_km": 512.4572570207768,
      "semi_major_axis_km": 6890.093751130384,
      "eccentricity": 0.0006502,
      "inclination_deg": 97.4231,
      "raan_deg": 166.6027,
      "arg_perigee_deg": 54.897,
      "mean_anomaly_deg": 305.2873,
      "mean_motion_rev_day": 15.17976559
    },
    {
      "epoch": "2026-04-03T15:35:39.203520Z",
      "apogee_km": 516.0771419132989,
      "perigee_km": 507.7484497201149,
      "latitude_deg": -1.713614283043083e-05,
      "longitude_deg": 102.38882135484164,
      "height_km": 512.2549688334083,
      "semi_major_axis_km": 6890.049795816706,
      "eccentricity": 0.0006044,
      "inclination_deg": 97.4212,
      "raan_deg": 168.2832,
      "arg_perigee_deg": 48.9242,
      "mean_anomaly_deg": 311.2513,
      "mean_motion_rev_day": 15.17991085
    },
    {
      "epoch": "2026-04-04T16:54:25.307712Z",
      "apogee_km": 516.206275987729,
      "perigee_km": 507.5758268505224,
      "latitude_deg": -4.7089127125579224e-05,
      "longitude_deg": 82.69206370580089,
      "height_km": 511.9005473149291,
      "semi_major_axis_km": 6890.028051419125,
      "eccentricity": 0.0006263,
      "inclination_deg": 97.4208,
      "raan_deg": 169.3181,
      "arg_perigee_deg": 44.664,
      "mean_anomaly_deg": 315.5097,
      "mean_motion_rev_day": 15.17998271
    },
    {
      "epoch": "2026-04-05T03:58:52.876992Z",
      "apogee_km": 516.348939984714,
      "perigee_km": 507.3979895896982,
      "latitude_deg": -1.946032349569674e-05,
      "longitude_deg": -83.4257188094209,
      "height_km": 511.671299429458,
      "semi_major_axis_km": 6890.010464787206,
      "eccentricity": 0.00064956,
      "inclination_deg": 97.4215,
      "raan_deg": 169.77,
      "arg_perigee_deg": 42.8576,
      "mean_anomaly_deg": 317.3163,
      "mean_motion_rev_day": 15.18004083
    },
    {
      "epoch": "2026-04-05T18:13:10.909920Z",
      "apogee_km": 516.2557634722207,
      "perigee_km": 507.44897905787,
      "latitude_deg": 7.934640225781095e-05,
      "longitude_deg": 62.99428218309475,
      "height_km": 511.56119018119085,
      "semi_major_axis_km": 6889.9893712650455,
      "eccentricity": 0.0006391,
      "inclination_deg": 97.4199,
      "raan_deg": 170.3499,
      "arg_perigee_deg": 40.0566,
      "mean_anomaly_deg": 320.1139,
      "mean_motion_rev_day": 15.18011054
    },
    {
      "epoch": "2026-04-06T03:42:42.848640Z",
      "apogee_km": 516.1353269615765,
      "perigee_km": 507.5999891911515,
      "latitude_deg": 1.1329440987939534e-05,
      "longitude_deg": -79.38901883844768,
      "height_km": 511.8585315694067,
      "semi_major_axis_km": 6890.004658076364,
      "eccentricity": 0.0006194,
      "inclination_deg": 97.4199,
      "raan_deg": 170.7395,
      "arg_perigee_deg": 43.6477,
      "mean_anomaly_deg": 316.5246,
      "mean_motion_rev_day": 15.18006002
    },
    {
      "epoch": "2026-04-07T17:40:50.331360Z",
      "apogee_km": 516.1560474301768,
      "perigee_km": 507.54080965033063,
      "latitude_deg": -6.10889723532634e-05,
      "longitude_deg": 71.07278732644974,
      "height_km": 511.5844176743017,
      "semi_major_axis_km": 6889.985428540253,
      "eccentricity": 0.0006252,
      "inclination_deg": 97.4205,
      "raan_deg": 172.2918,
      "arg_perigee_deg": 39.0857,
      "mean_anomaly_deg": 321.0827,
      "mean_motion_rev_day": 15.18012357
    },
    {
      "epoch": "2026-04-08T03:10:21.998784Z",
      "apogee_km": 516.3379386049692,
      "perigee_km": 507.306855425737,
      "latitude_deg": -1.3853751778064342e-05,
      "longitude_deg": -71.31099549254282,
      "height_km": 511.3383998152055,
      "semi_major_axis_km": 6889.959397015353,
      "eccentricity": 0.00065538,
      "inclination_deg": 97.4204,
      "raan_deg": 172.6798,
      "arg_perigee_deg": 37.8954,
      "mean_anomaly_deg": 322.274,
      "mean_motion_rev_day": 15.1802096
    },
    {
      "epoch": "2026-04-09T04:29:06.432864Z",
      "apogee_km": 516.1046955569054,
      "perigee_km": 507.5271175853986,
      "latitude_deg": 1.0506916016107648e-06,
      "longitude_deg": -91.00108362662894,
      "height_km": 511.4608496058409,
      "semi_major_axis_km": 6889.952906571152,
      "eccentricity": 0.00062247,
      "inclination_deg": 97.4202,
      "raan_deg": 173.7144,
      "arg_perigee_deg": 36.7801,
      "mean_anomaly_deg": 323.3859,
      "mean_motion_rev_day": 15.18023105
    },
    {
      "epoch": "2026-04-10T10:32:36.224160Z",
      "apogee_km": 515.9589879596524,
      "perigee_km": 507.63319281322947,
      "latitude_deg": 4.5090816828151826e-05,
      "longitude_deg": 178.11942735036462,
      "height_km": 511.2635649959256,
      "semi_major_axis_km": 6889.933090386441,
      "eccentricity": 0.0006042,
      "inclination_deg": 97.4215,
      "raan_deg": 174.9435,
      "arg_perigee_deg": 29.7598,
      "mean_anomaly_deg": 330.3979,
      "mean_motion_rev_day": 15.18029654
    },
    {
      "epoch": "2026-04-11T18:11:01.188096Z",
      "apogee_km": 515.9636133303457,
      "perigee_km": 507.59236661752675,
      "latitude_deg": 5.4779082050421184e-05,
      "longitude_deg": 63.50828755737708,
      "height_km": 511.0963007809811,
      "semi_major_axis_km": 6889.914989973936,
      "eccentricity": 0.0006075,
      "inclination_deg": 97.4186,
      "raan_deg": 176.2358,
      "arg_perigee_deg": 25.9464,
      "mean_anomaly_deg": 334.2074,
      "mean_motion_rev_day": 15.18035636
    },
    {
      "epoch": "2026-04-13T03:24:20.572128Z",
      "apogee_km": 515.6714083527322,
      "perigee_km": 507.85261315734715,
      "latitude_deg": -1.3941946138529454e-05,
      "longitude_deg": -74.83005230499533,
      "height_km": 511.2390257791882,
      "semi_major_axis_km": 6889.89901075504,
      "eccentricity": 0.00056741,
      "inclination_deg": 97.4219,
      "raan_deg": 177.5926,
      "arg_perigee_deg": 22.7281,
      "mean_anomaly_deg": 337.4203,
      "mean_motion_rev_day": 15.18040917
    },
    {
      "epoch": "2026-04-15T15:31:16.844736Z",
      "apogee_km": 515.5174581887577,
      "perigee_km": 507.9496243862077,
      "latitude_deg": -7.197940039924303e-05,
      "longitude_deg": 103.42412807188609,
      "height_km": 511.14419594263313,
      "semi_major_axis_km": 6889.870541287482,
      "eccentricity": 0.0005492,
      "inclination_deg": 97.4208,
      "raan_deg": 180.0501,
      "arg_perigee_deg": 13.8605,
      "mean_anomaly_deg": 346.2778,
      "mean_motion_rev_day": 15.18050326
    },
    {
      "epoch": "2026-04-16T10:30:20.971872Z",
      "apogee_km": 515.4143452906483,
      "perigee_km": 508.77216332549415,
      "latitude_deg": 4.303307489156001e-05,
      "longitude_deg": 178.65555343105953,
      "height_km": 512.1837541052614,
      "semi_major_axis_km": 6890.2302543080705,
      "eccentricity": 0.000482,
      "inclination_deg": 97.4191,
      "raan_deg": 180.8284,
      "arg_perigee_deg": 25.6991,
      "mean_anomaly_deg": 334.4482,
      "mean_motion_rev_day": 15.1793145
    }
  ]
}